IXPE                    
1 49954U 21121A   24076.91667824  .00006697  00000+0  49914-3 0  9997
2 49954   0.2306 357.6874 0009874 351.6319 187.8862 14.96863225  5494
